start=new Date('2023-01-13T00:00:00.000Z').valueOf();
sats=[{"GP_ID":"222893367","SEMIMAJOR_AXIS":"6941.142","MEAN_MOTION":"15.01261437","PERIAPSIS":"562.692","CENTER_NAME":"EARTH","OBJECT_TYPE":"PAYLOAD","FILE":"3742227","NORAD_CAT_ID":"53465","OBJECT_NAME":"STARLINK-4415","COUNTRY_CODE":"US","ARG_OF_PERICENTER":"119.0148","CLASSIFICATION_TYPE":"U","INCLINATION":"97.6527","LAUNCH_DATE":"2022-08-12","REV_AT_EPOCH":"2318","TIME_SYSTEM":"UTC","ECCENTRICITY":"0.00004540","MEAN_ELEMENT_THEORY":"SGP4","EPOCH":"2023-01-12T21:47:34.640448","OBJECT_ID":"2022-099A","EPHEMERIS_TYPE":"0","RCS_SIZE":"LARGE","TLE_LINE1":"1 53465U 22099A   23012.90803982 -.00001665  00000-0 -12505-3 0  9998","RA_OF_ASC_NODE":"136.1958","BSTAR":"-0.00012505000000","DECAY_DATE":null,"TLE_LINE2":"2 53465  97.6527 136.1958 0000454 119.0148 241.1122 15.01261437 23188","MEAN_ANOMALY":"241.1122","APOAPSIS":"563.323","PERIOD":"95.919","MEAN_MOTION_DDOT":"0.0000000000000","MEAN_MOTION_DOT":"-0.00001665","REF_FRAME":"TEME","ELEMENT_SET_NO":"999","SITE":"AFWTR"},{"TLE_LINE1":"1 53466U 22099B   23012.97284433  .00000393  00000-0  35164-4 0  9992","EPHEMERIS_TYPE":"0","RCS_SIZE":"LARGE","DECAY_DATE":null,"BSTAR":"0.00003516400000","RA_OF_ASC_NODE":"136.2604","MEAN_MOTION_DDOT":"0.0000000000000","MEAN_ANOMALY":"275.4177","APOAPSIS":"563.766","PERIOD":"95.920","TLE_LINE2":"2 53466  97.6573 136.2604 0001018  84.7163 275.4177 15.01244446 23429","SITE":"AFWTR","ELEMENT_SET_NO":"999","REF_FRAME":"TEME","MEAN_MOTION_DOT":"0.00000393","SEMIMAJOR_AXIS":"6941.195","MEAN_MOTION":"15.01244446","PERIAPSIS":"562.353","GP_ID":"222864591","COUNTRY_CODE":"US","ARG_OF_PERICENTER":"84.7163","OBJECT_NAME":"STARLINK-4398","OBJECT_TYPE":"PAYLOAD","FILE":"3742125","NORAD_CAT_ID":"53466","CENTER_NAME":"EARTH","CLASSIFICATION_TYPE":"U","LAUNCH_DATE":"2022-08-12","REV_AT_EPOCH":"2342","INCLINATION":"97.6573","MEAN_ELEMENT_THEORY":"SGP4","EPOCH":"2023-01-12T23:20:53.750112","OBJECT_ID":"2022-099B","ECCENTRICITY":"0.00010180","TIME_SYSTEM":"UTC"},{"DECAY_DATE":null,"BSTAR":"-0.00022909000000","RA_OF_ASC_NODE":"136.2564","TLE_LINE1":"1 53467U 22099C   23012.97097883 -.00003000  00000-0 -22909-3 0  9996","RCS_SIZE":"LARGE","EPHEMERIS_TYPE":"0","SITE":"AFWTR","ELEMENT_SET_NO":"999","REF_FRAME":"TEME","MEAN_MOTION_DOT":"-0.00003000","MEAN_MOTION_DDOT":"0.0000000000000","APOAPSIS":"563.834","PERIOD":"95.920","MEAN_ANOMALY":"258.5672","TLE_LINE2":"2 53467  97.6575 136.2564 0001155 101.5681 258.5672 15.01253527 23424","ARG_OF_PERICENTER":"101.5681","COUNTRY_CODE":"US","OBJECT_NAME":"STARLINK-4394","NORAD_CAT_ID":"53467","FILE":"3742120","OBJECT_TYPE":"PAYLOAD","CENTER_NAME":"EARTH","PERIAPSIS":"562.230","SEMIMAJOR_AXIS":"6941.167","MEAN_MOTION":"15.01253527","GP_ID":"222865238","OBJECT_ID":"2022-099C","MEAN_ELEMENT_THEORY":"SGP4","EPOCH":"2023-01-12T23:18:12.570912","TIME_SYSTEM":"UTC","ECCENTRICITY":"0.00011550","INCLINATION":"97.6575","LAUNCH_DATE":"2022-08-12","REV_AT_EPOCH":"2342","CLASSIFICATION_TYPE":"U"},{"RA_OF_ASC_NODE":"136.1838","DECAY_DATE":null,"BSTAR":"0.00041574000000","RCS_SIZE":"LARGE","EPHEMERIS_TYPE":"0","TLE_LINE1":"1 53468U 22099D   23012.90248504  .00005285  00000-0  41574-3 0  9992","REF_FRAME":"TEME","MEAN_MOTION_DOT":"0.00005285","SITE":"AFWTR","ELEMENT_SET_NO":"999","TLE_LINE2":"2 53468  97.6528 136.1838 0001053 122.3734 237.7592 15.01264151 23170","MEAN_MOTION_DDOT":"0.0000000000000","APOAPSIS":"563.730","PERIOD":"95.919","MEAN_ANOMALY":"237.7592","NORAD_CAT_ID":"53468","FILE":"3742227","OBJECT_TYPE":"PAYLOAD","CENTER_NAME":"EARTH","ARG_OF_PERICENTER":"122.3734","COUNTRY_CODE":"US","OBJECT_NAME":"STARLINK-4400","GP_ID":"222892661","PERIAPSIS":"562.268","SEMIMAJOR_AXIS":"6941.134","MEAN_MOTION":"15.01264151","ECCENTRICITY":"0.00010530","TIME_SYSTEM":"UTC","OBJECT_ID":"2022-099D","EPOCH":"2023-01-12T21:39:34.707456","MEAN_ELEMENT_THEORY":"SGP4","REV_AT_EPOCH":"2317","LAUNCH_DATE":"2022-08-12","INCLINATION":"97.6528","CLASSIFICATION_TYPE":"U"},{"APOAPSIS":"564.031","PERIOD":"95.920","MEAN_ANOMALY":"275.5317","MEAN_MOTION_DDOT":"0.0000000000000","TLE_LINE2":"2 53469  97.6560 136.1868 0001446  84.6072 275.5317 15.01255029 23170","ELEMENT_SET_NO":"999","SITE":"AFWTR","MEAN_MOTION_DOT":"-0.00001721","REF_FRAME":"TEME","TLE_LINE1":"1 53469U 22099E   23012.90064630 -.00001721  00000-0 -12943-3 0  9990","RCS_SIZE":"LARGE","EPHEMERIS_TYPE":"0","BSTAR":"-0.00012943000000","DECAY_DATE":null,"RA_OF_ASC_NODE":"136.1868","LAUNCH_DATE":"2022-08-12","REV_AT_EPOCH":"2317","INCLINATION":"97.6560","CLASSIFICATION_TYPE":"U","OBJECT_ID":"2022-099E","EPOCH":"2023-01-12T21:36:55.840320","MEAN_ELEMENT_THEORY":"SGP4","TIME_SYSTEM":"UTC","ECCENTRICITY":"0.00014460","PERIAPSIS":"562.023","MEAN_MOTION":"15.01255029","SEMIMAJOR_AXIS":"6941.162","GP_ID":"222892896","OBJECT_NAME":"STARLINK-4399","ARG_OF_PERICENTER":"84.6072","COUNTRY_CODE":"US","CENTER_NAME":"EARTH","NORAD_CAT_ID":"53469","FILE":"3742227","OBJECT_TYPE":"PAYLOAD"},{"ELEMENT_SET_NO":"999","SITE":"AFWTR","MEAN_MOTION_DOT":"0.00000322","REF_FRAME":"TEME","APOAPSIS":"563.971","MEAN_ANOMALY":"251.3670","PERIOD":"95.920","MEAN_MOTION_DDOT":"0.0000000000000","TLE_LINE2":"2 53470  97.6573 136.2527 0001333 108.7699 251.3670 15.01249074 23422","BSTAR":"0.00002967200000","DECAY_DATE":null,"RA_OF_ASC_NODE":"136.2527","TLE_LINE1":"1 53470U 22099F   23012.96752706  .00000322  00000-0  29672-4 0  9998","RCS_SIZE":"LARGE","EPHEMERIS_TYPE":"0","OBJECT_ID":"2022-099F","MEAN_ELEMENT_THEORY":"SGP4","EPOCH":"2023-01-12T23:13:14.337984","TIME_SYSTEM":"UTC","ECCENTRICITY":"0.00013330","REV_AT_EPOCH":"2342","LAUNCH_DATE":"2022-08-12","INCLINATION":"97.6573","CLASSIFICATION_TYPE":"U","OBJECT_NAME":"STARLINK-4393","ARG_OF_PERICENTER":"108.7699","COUNTRY_CODE":"US","CENTER_NAME":"EARTH","FILE":"3742120","NORAD_CAT_ID":"53470","OBJECT_TYPE":"PAYLOAD","PERIAPSIS":"562.120","SEMIMAJOR_AXIS":"6941.181","MEAN_MOTION":"15.01249074","GP_ID":"222865242"},{"RA_OF_ASC_NODE":"136.1796","DECAY_DATE":null,"BSTAR":"-0.00065811000000","EPHEMERIS_TYPE":"0","RCS_SIZE":"LARGE","TLE_LINE1":"1 53471U 22099G   23012.89692015 -.00008497  00000-0 -65811-3 0  9994","REF_FRAME":"TEME","MEAN_MOTION_DOT":"-0.00008497","SITE":"AFWTR","ELEMENT_SET_NO":"999","TLE_LINE2":"2 53471  97.6557 136.1796 0001670  79.5050 280.6362 15.01239152 23173","MEAN_MOTION_DDOT":"0.0000000000000","APOAPSIS":"564.235","PERIOD":"95.921","MEAN_ANOMALY":"280.6362","OBJECT_TYPE":"PAYLOAD","NORAD_CAT_ID":"53471","FILE":"3742227","CENTER_NAME":"EARTH","COUNTRY_CODE":"US","ARG_OF_PERICENTER":"79.5050","OBJECT_NAME":"STARLINK-4316","GP_ID":"222891948","SEMIMAJOR_AXIS":"6941.211","MEAN_MOTION":"15.01239152","PERIAPSIS":"561.917","ECCENTRICITY":"0.00016700","TIME_SYSTEM":"UTC","MEAN_ELEMENT_THEORY":"SGP4","EPOCH":"2023-01-12T21:31:33.900960","OBJECT_ID":"2022-099G","CLASSIFICATION_TYPE":"U","LAUNCH_DATE":"2022-08-12","REV_AT_EPOCH":"2317","INCLINATION":"97.6557"},{"MEAN_ELEMENT_THEORY":"SGP4","EPOCH":"2023-01-12T23:10:14.193984","OBJECT_ID":"2022-099H","TIME_SYSTEM":"UTC","ECCENTRICITY":"0.00013290","CLASSIFICATION_TYPE":"U","LAUNCH_DATE":"2022-08-12","REV_AT_EPOCH":"2342","INCLINATION":"97.6551","OBJECT_NAME":"STARLINK-4447","COUNTRY_CODE":"US","ARG_OF_PERICENTER":"69.7027","CENTER_NAME":"EARTH","OBJECT_TYPE":"PAYLOAD","NORAD_CAT_ID":"53472","FILE":"3742120","SEMIMAJOR_AXIS":"6941.223","MEAN_MOTION":"15.01235452","PERIAPSIS":"562.165","GP_ID":"222865236","ELEMENT_SET_NO":"999","SITE":"AFWTR","MEAN_MOTION_DOT":"0.00008275","REF_FRAME":"TEME","APOAPSIS":"564.010","MEAN_ANOMALY":"290.4340","PERIOD":"95.921","MEAN_MOTION_DDOT":"0.0000000000000","TLE_LINE2":"2 53472  97.6551 136.2490 0001329  69.7027 290.4340 15.01235452 23428","BSTAR":"0.00064854000000","DECAY_DATE":null,"RA_OF_ASC_NODE":"136.2490","TLE_LINE1":"1 53472U 22099H   23012.96544206  .00008275  00000-0  64854-3 0  9999","EPHEMERIS_TYPE":"0","RCS_SIZE":"LARGE"},{"MEAN_MOTION_DDOT":"0.0000000000000","APOAPSIS":"564.121","PERIOD":"95.921","MEAN_ANOMALY":"309.2646","TLE_LINE2":"2 53473  97.6591 136.1838 0001493  50.8711 309.2646 15.01236459 23179","SITE":"AFWTR","ELEMENT_SET_NO":"999","REF_FRAME":"TEME","MEAN_MOTION_DOT":"-0.00007754","TLE_LINE1":"1 53473U 22099J   23012.89322012 -.00007754  00000-0 -60013-3 0  9997","EPHEMERIS_TYPE":"0","RCS_SIZE":"LARGE","DECAY_DATE":null,"BSTAR":"-0.00060013000000","RA_OF_ASC_NODE":"136.1838","CLASSIFICATION_TYPE":"U","INCLINATION":"97.6591","LAUNCH_DATE":"2022-08-12","REV_AT_EPOCH":"2317","EPOCH":"2023-01-12T21:26:14.218368","MEAN_ELEMENT_THEORY":"SGP4","OBJECT_ID":"2022-099J","TIME_SYSTEM":"UTC","ECCENTRICITY":"0.00014930","MEAN_MOTION":"15.01236459","SEMIMAJOR_AXIS":"6941.219","PERIAPSIS":"562.048","GP_ID":"222893368","COUNTRY_CODE":"US","ARG_OF_PERICENTER":"50.8711","OBJECT_NAME":"STARLINK-4383","OBJECT_TYPE":"PAYLOAD","NORAD_CAT_ID":"53473","FILE":"3742227","CENTER_NAME":"EARTH"},{"TLE_LINE1":"1 53474U 22099K   23012.88606819  .00000823  00000-0  68652-4 0  9993","EPHEMERIS_TYPE":"0","RCS_SIZE":"LARGE","DECAY_DATE":null,"BSTAR":"0.00006865200000","RA_OF_ASC_NODE":"136.1945","MEAN_MOTION_DDOT":"0.0000000000000","APOAPSIS":"564.810","MEAN_ANOMALY":"339.9134","PERIOD":"95.920","TLE_LINE2":"2 53474  97.6556 136.1945 0002579  20.2192 339.9134 15.01257375 23172","SITE":"AFWTR","ELEMENT_SET_NO":"999","REF_FRAME":"TEME","MEAN_MOTION_DOT":"0.00000823","SEMIMAJOR_AXIS":"6941.155","MEAN_MOTION":"15.01257375","PERIAPSIS":"561.230","GP_ID":"222892188","COUNTRY_CODE":"US","ARG_OF_PERICENTER":"20.2192","OBJECT_NAME":"STARLINK-4445","OBJECT_TYPE":"PAYLOAD","NORAD_CAT_ID":"53474","FILE":"3742227","CENTER_NAME":"EARTH","CLASSIFICATION_TYPE":"U","REV_AT_EPOCH":"2317","LAUNCH_DATE":"2022-08-12","INCLINATION":"97.6556","MEAN_ELEMENT_THEORY":"SGP4","EPOCH":"2023-01-12T21:15:56.291616","OBJECT_ID":"2022-099K","TIME_SYSTEM":"UTC","ECCENTRICITY":"0.00025790"}];
